[{"OBJECT_NAME":"STARLINK-30321","OBJECT_ID":"2023-124S","EPOCH":"2026-03-09T15:23:13.167168","MEAN_MOTION":15.30168647,"ECCENTRICITY":0.0001288,"INCLINATION":53.1605,"RA_OF_ASC_NODE":206.8257,"ARG_OF_PERICENTER":63.9534,"MEAN_ANOMALY":296.1599,"EPHEMERIS_TYPE":0,"CLASSIFICATION_TYPE":"U","NORAD_CAT_ID":57679,"ELEMENT_SET_NO":999,"REV_AT_EPOCH":14356,"BSTAR":-5.4516e-5,"MEAN_MOTION_DOT":-1.972e-5,"MEAN_MOTION_DDOT":0},{"OBJECT_NAME":"ICEYE-X31","OBJECT_ID":"2023-174AJ","EPOCH":"2026-03-09T23:06:20.433600","MEAN_MOTION":15.30950809,"ECCENTRICITY":0.00015021,"INCLINATION":97.3851,"RA_OF_ASC_NODE":144.9524,"ARG_OF_PERICENTER":332.6589,"MEAN_ANOMALY":27.4572,"EPHEMERIS_TYPE":0,"CLASSIFICATION_TYPE":"U","NORAD_CAT_ID":58288,"ELEMENT_SET_NO":999,"REV_AT_EPOCH":12955,"BSTAR":0.00066288467,"MEAN_MOTION_DOT":0.00019777,"MEAN_MOTION_DDOT":0}]
